#dP2021 10 12  0  0  0.00000000      96 __u+U ITR00 FIT  IAC
## 2179 172800.00000000   900.00000000 59499 0.0000000000000
+  114   C06C07C08C09C10C11C12C13C14C16C19C20C21C22C23C24C25
+        C26C27C28C29C30C32C33C34C35C36C37C38C39C40C41C42C43
+        C44C45C46E01E02E03E04E05E07E08E09E11E12E13E14E15E18
+        E19E21E24E25E26E27E30E31E33E36G01G02G03G04G05G06G07
+        G08G09G10G11G12G13G14G15G16G17G18G19G20G21G22G23G24
+        G25G26G27G28G29G30G31G32R01R02R03R04R05R07R08R09R11
+        R12R13R14R15R16R17R18R19R20R21R22R24  0  0  0  0  0
++         8  7  8  7  6  7  6  8  6  7  6  6  6  6  6  7  7
++         7  6  8  7  8  5  6  6  7  6  7  8  8  6  6  6  8
++         9  9  7  7  7  7  7  6  8  7  6  9  8  7  7  7  7
++         7  6  8  7  8  6  7  7  7  8  7  6  7  9  7  7  7
++         6  7  8  6  8  6  6  6  6  7  8  7  6  8  8  7  5
++         6  8  6  6  7  6  8  8  6  7  6  7  6  8  7  7  7
++         6  7  5  6  6  6  6  7  7  7  7  6  0  0  0  0  0
%c M  cc GPS ccc cccc cccc cccc cccc ccccc ccccc ccccc ccccc
%c cc cc ccc ccc cccc cccc cccc cccc ccccc ccccc ccccc ccccc
%f  0.0000000  0.000000000  0.00000000000  0.000000000000000
%f  0.0000000  0.000000000  0.00000000000  0.000000000000000
%i    0    0    0    0      0      0      0      0         0
%i    0    0    0    0      0      0      0      0         0
/* INFORMATION & ANALYSIS CENTER (IAC)      ULTRA-RAPID DATA
/* S/V CLOCKS ARE ALIGNED TO GNSS TIME                      
/* G:C1WC2W R:C1PC2P E:C1XC5X C:C2IC6I J:C1CC2S             
/* PCV:IGS14_2163 OL/AL:FES2004  NONE     YN ORB:CoN CLK:CoN
*  2021 10 12  1 45  0.00000000
PC06 -17895.883027  35588.616583 -14107.042864    321.791564
PC07  -4090.004449  35427.872449 -22386.779703   -204.141696
PC08  -8192.598311  19885.213707  36252.674012   -873.214146
PC09 -11844.370019  34344.012985 -21461.139576   -177.166065
PC10   2903.687772  38359.780213 -16457.654195      6.060507
PC11  20099.368425 -19376.794525    976.937435    625.931131
PC12  21371.897949  -6053.011546  16948.605027    741.024855
PC13     34.008577  22731.374262  35626.087798    439.103889
PC14  10002.576776 -16033.735240 -20536.809086    591.568419
PC16 -20698.651048  35255.801521 -10643.509748   -768.188561
PC19  -3430.039763  23467.427542  14710.626724    949.941468
PC20 -14071.520523   7795.393445  22805.515424   -794.006416
PC21  16860.651022  13454.186381 -17688.109819   -931.751142
PC22   9562.440197  26106.569968  -2258.102120   -957.218237
PC23 -12013.128965 -16761.628852  18809.592451   -969.148918
PC24  24935.284718  -2991.191782  12196.545260   -971.650668
PC25   8043.649364 -14625.565356  22364.388330   -841.386843
PC26  26377.079465   8386.442634  -3720.612469    837.426580
PC27 -17595.825831  -3129.372440 -21452.323081    611.724658
PC28  -2416.978014 -18284.043007 -20942.499798    -15.926040
PC29 -13251.331621  23175.753111   8113.466640    459.275200
PC30 -21931.268367  14144.799999  -9909.603256    483.210618
PC32 -16973.380926 -13401.072213  17645.673592   -963.703267
PC33   3365.183007 -23457.365219 -14750.382067   -968.047412
PC34  21858.186155 -14736.173266   9123.177615   -561.880133
PC35   2694.904214  18502.166536  20718.980567    -50.513733
PC36  -8814.527120  14264.136744 -22275.526951   -776.880049
PC37 -25774.058089  -9588.277074   4693.604815   -873.636231
PC38 -17390.375207  19681.871937  32944.360626    181.640335
PC39 -22681.458574  35364.127853  -4460.292216     33.583561
PC40  -7236.680565  31929.009830 -26476.171937    207.643662
PC41  -9464.815336 -26179.300257   1936.332073   -924.397564
PC42  14441.768041  -6897.906601 -22826.589029   -962.861078
PC43  13739.611067 -23074.616321  -7562.275685   -955.519714
PC44  17639.840719   2823.302108  21423.985524    428.134552
PC45  12294.710007  16612.934355 -18752.708896    571.470141
PC46 -24256.676121   3806.573117 -13213.592431     43.906736
PE01  22354.401537  19400.171827    553.665251   -493.585232
PE02 -22396.494171 -19328.269877   -673.323201    252.866674
PE03 -12235.270427 -16229.989705  21514.526106   -484.167224
PE04  17737.576352  -5389.479098 -23077.482735   -875.857655
PE05    545.798603 -28682.863860   7290.633105   -242.458105
PE07 -12852.950980  24281.377862  11004.622093   -595.070142
PE08 -17581.703243   5923.121334  23056.081210   5923.098880
PE09  12591.978859 -24489.674961 -10879.780341   5501.305072
PE11  20859.926339 -16293.508920 -13257.485408   5280.988677
PE12  28429.032009  -5595.864843   6041.162381   4965.173514
PE13 -21228.390705  16148.658044  12831.327966    422.499645
PE14  17887.944578  -7312.112948  16125.378558  -1601.793992
PE15 -28400.707905   5679.920065  -6084.692580    787.271162
PE18 -20318.030124  -2846.295627 -23712.323788  -1759.194794
PE19  10823.034961  18462.200728 -20452.567550    399.950507
PE21   9291.075826  22922.042185 -16256.413766   -693.116974
PE24  10862.282478 -12614.011899  24473.178702  -1166.239169
PE25  -9057.151129 -22889.255741  16449.484335   -549.729697
PE26   -458.577886  16981.580745  24240.109027   1240.239352
PE27  -9805.744543  13444.955677 -24467.917075   -140.267093
PE30 -23397.581911  -5021.186333 -17410.826402   2547.623808
PE31  23000.326689   3857.484944  18247.091991   -486.667693
PE33  18822.597170   8105.796232  21362.847736   -463.859312
PE36   1611.010361 -17079.577978 -24120.614227   -274.767398
PG01  -6297.706413 -13834.326600 -22088.861779    541.914130
PG02 -17026.529367  14709.123104  14833.112207   -636.992299
PG03 -11179.016535 -22697.149812  -8358.673765   -321.646574
PG04  -2080.405525 -21906.005281  14826.266782   -203.750242
PG05   -529.497266  18929.911877  18392.082066    -57.365959
PG06 -25753.525185   6022.096737   2804.003172     92.695920
PG07 -21091.930715  -7530.379238  15018.346136    260.923289
PG08   5589.998040 -25357.972582  -4717.716729    -39.766228
PG09 -11097.295599 -12408.178005  20619.246074   -361.768584
PG10  19880.282590   6447.025148 -16439.309420   -222.023404
PG11 -19395.482869  11738.016733  13815.532233     21.110110
PG12   8634.421976  23445.810009  -9455.971367   -110.254097
PG13 -13108.909636  22979.566497    921.014377    198.283822
PG14 -19674.959032  -6696.077014 -16568.623034    -17.112528
PG15  -2120.392709  25796.421144  -5486.885179   -114.615341
PG16   5923.685544 -15787.851767  20151.129028   -405.557409
PG17 -15997.224491   1806.318462 -20693.147655    517.880576
PG18  21967.631283   6296.866554  13606.995925    311.400665
PG19 -17895.396977  10286.091707 -16888.496138     64.682165
PG20 -10275.253502  11817.859534  21427.761517    518.683984
PG21   2833.272548 -15548.860593 -20566.525021    147.174757
PG22  -6057.407364 -21245.466688 -14717.927506   -491.469710
PG23  20211.811916  15713.077826  -7249.609107     46.248146
PG24   1893.941102  15845.042305 -21479.062489    252.009405
PG25  16761.644285  20796.681382   -423.597985    222.952330
PG26  15685.502493  -5258.800615  20767.697232    143.915065
PG27  12203.350333 -22795.407690   4951.052840   -205.035930
PG28 -16755.329148   -383.536549 -20009.093050    484.255045
PG29   7286.199657  15859.211164  19956.627672   -424.924010
PG30 -26231.395271      6.370245   4979.367580   -481.516315
PG31  25462.951469  -6887.342065   4709.628230   -144.469921
PG32  16833.862942  -6018.392332 -19471.216431     -9.247300
PR01   2419.238112 -22831.313806 -11132.429227     86.564324
PR02  -6677.551396 -22825.740778   9168.798770    496.345058
PR03 -11132.384874  -8448.982819  21360.408781     44.547354
PR04  -9046.996198  10347.556988  21510.663350    108.962803
PR05  -2156.563966  23501.781416   9717.644960     80.537803
PR07  11140.200802   7868.487467 -21536.789132    -40.689748
PR08   9096.015320 -10418.445538 -21379.047062    -61.444063
PR09  15887.151030  14168.793356 -13977.495253     17.800110
PR11  18353.049315  -1336.624265  17673.118423     50.062163
PR12   1581.289272 -11219.305536  22883.888778    269.335267
PR13 -15258.514780 -14109.818162  14781.510068    -61.975224
PR14 -23787.866733  -8780.087246  -2836.130143     69.803486
PR15 -17978.209278   1549.394275 -18003.785413    100.912827
PR16     74.611510  11901.588389 -22590.934440    -22.998508
PR17 -17077.909110   1829.447543 -18829.010115    465.692510
PR18 -21552.603042  12884.349518  -4593.987304     93.474936
PR19 -15710.824071  16657.272329  11226.366392   -162.770980
PR20   1920.323960  10976.135594  22956.339711    -57.394825
PR21  17847.881197  -2849.306811  18018.229510   -246.081582
PR22  21471.357283 -13197.696740   3619.155859   -138.381602
PR24  -3070.251265 -10903.918243 -22839.574975     62.329842
EOF
